GLOBALSTAR M094 [+]     
1 39074U 13005C   23276.47369118 -.00000096  00000+0  44463-4 0  9991
2 39074  51.9946 278.0986 0000439  50.8106 309.2800 12.62268139493733
GLOBALSTAR M096 [+]     
1 39075U 13005D   23276.48677231 -.00000082  00000+0  12034-3 0  9994
2 39075  52.0088 326.0866 0000354  52.7906 307.2993 12.62264403492650
GLOBALSTAR M078 [+]     
1 39076U 13005E   23276.61850342 -.00000106  00000+0 -12372-4 0  9990
2 39076  51.9882  51.0353 0000590 198.4355 161.6490 12.62261557491295
GLOBALSTAR M095 [+]     
1 39077U 13005F   23276.64530652 -.00000112  00000+0 -43962-4 0  9999
2 39077  51.9811  48.4624 0000051 100.7622 259.3250 12.62269040491513
GLOBALSTAR M087 [+]     
1 52888U 22064A   23276.61202317 -.00000091  00000+0  71206-4 0  9997
2 52888  51.9775  26.5175 0010073  72.9653 287.2350 13.37553681 63059
